ONEWEB-0588             
1 55153U 23004P   25362.38561479  .00000057  00000+0  11152-3 0  9993
2 55153  87.9164   9.4013 0001579 104.8400 255.2907 13.18686354147188
ONEWEB-0598             
1 55154U 23004Q   25362.17917682 -.00000521  00000+0 -15064-2 0  9995
2 55154  87.8840  55.1258 0001185  88.6853 271.4411 13.11414886143483
ONEWEB-0599             
1 55155U 23004R   25362.39634652  .00000043  00000+0  77304-4 0  9997
2 55155  87.9097  39.8251 0001678  90.3491 269.7833 13.17648585144992
ONEWEB-0614             
1 55156U 23004S   25362.40299441 -.00000432  00000+0 -12559-2 0  9996
2 55156  87.8838  55.0902 0001944 110.1330 250.0007 13.11414820143450
ONEWEB-0616             
1 55157U 23004T   25362.36259372  .00000020  00000+0  18753-4 0  9996
2 55157  87.9105  39.8250 0002299  72.7744 287.3639 13.17648579145206
ONEWEB-0617             
1 55158U 23004U   25362.39113500  .00000001  00000+0 -32737-4 0  9990
2 55158  87.8840  55.0721 0001695 112.8717 247.2590 13.11415148143476
ONEWEB-0618             
1 55159U 23004V   25362.39303992  .00009860  00000+0  58827-3 0  9995
2 55159  86.9075 246.8955 0011275 197.7507 162.3339 15.10972968156459
ONEWEB-0619             
1 55160U 23004W   25362.16682490 -.00000186  00000+0 -51235-3 0  9995
2 55160  87.9105  39.8377 0002300  99.3136 260.8256 13.17648652145071
